satname,norad_id,inclination_deg,eccentricity,mean_motion_rev_per_day,perigee_km,apogee_km,l1,l2
STARLINK-1496,45780,53.0552,0.0001433,15.37150126,453.5623525026176,455.52059815364646,1 45780U 20038BC  26005.59616594  .00135642  00000+0  36204-2 0  9992,2 45780  53.0552 117.1186 0001433  29.0457 331.0625 15.37150126307279
STARLINK-1497,45781,53.0311,0.0006278,15.78923288,329.27657370101133,337.70369272947664,1 45781U 20038BD  26005.66668981  .00255533  00000+0  13759-2 0  9990,2 45781  53.0311  37.1653 0006278  35.1637 347.1745 15.78923288  5978
STARLINK-1510,45784,53.01,0.0001995,16.39185297,166.66467774720513,169.2765746900659,1 45784U 20038BG  26005.89394781  .07990525  12311-4  64457-3 0  9991,2 45784  53.0100   0.5379 0001995 154.8608 205.2535 16.39185297308946
STARLINK-1513,45786,53.0554,0.0001049,15.06397898,546.4915305334971,547.9444700125541,1 45786U 20038BJ  26005.61917174  .00001400  00000+0  11288-3 0  9999,2 45786  53.0554 119.7536 0001049  85.6817 274.4291 15.06397898307257
STARLINK-1522,46027,53.0544,0.0001497,15.06410325,546.1431935391465,548.2166334230424,1 46027U 20055A   26005.59983829  .00010981  00000+0  75473-3 0  9994,2 46027  53.0544  49.8396 0001497  85.9656 274.1505 15.06410325299372
STARLINK-1523,46028,53.0552,0.000142,15.06396647,546.2384334649305,548.2052353739064,1 46028U 20055B   26005.41553909  .00001537  00000+0  12204-3 0  9998,2 46028  53.0552  50.6685 0001420 103.4452 256.6695 15.06396647299363
STARLINK-1526,46029,53.0566,0.0001725,15.06388639,546.0517493531297,548.4410066185346,1 46029U 20055C   26005.34181951  .00007380  00000+0  51397-3 0  9993,2 46029  53.0566  50.9977 0001725 119.8065 240.3096 15.06388639299340
STARLINK-1555,46032,53.0542,0.0001387,15.06398103,546.2568253247673,548.1779186275535,1 46032U 20055F   26005.39342602  .00014803  00000+0  10106-2 0  9994,2 46032  53.0542  50.7658 0001387  71.9484 288.1656 15.06398103299359
STARLINK-1556,46033,53.0542,0.0001465,15.06392163,546.2210102360978,548.2501444012532,1 46033U 20055G   26005.44134512  .00012792  00000+0  87625-3 0  9996,2 46033  53.0542  50.5516 0001465  80.4526 279.6629 15.06392163299333
STARLINK-1557,46034,53.0549,0.0001268,15.06402542,546.3256338760812,548.0819002946146,1 46034U 20055H   26005.51135879  .00000085  00000+0  24564-4 0  9998,2 46034  53.0549  50.2357 0001268  89.6504 270.4630 15.06402542299344
STARLINK-1558,46035,53.0535,0.0001504,15.06399787,546.1706382313805,548.2537832739754,1 46035U 20055J   26005.38605309  .00005500  00000+0  38784-3 0  9999,2 46035  53.0535  50.8023 0001504  95.0102 265.1059 15.06399787299357
STARLINK-1560,46036,53.0535,0.0001494,15.06390831,546.2050084722723,548.2743110182037,1 46036U 20055K   26005.43765623  .00007692  00000+0  53485-3 0  9991,2 46036  53.0535  50.5699 0001494 103.0020 257.1136 15.06390831299360
STARLINK-1567,46038,53.0546,0.000169,15.06459054,545.8602185264835,548.2009251657673,1 46038U 20055M   26005.51504324  .00030140  00000+0  20304-2 0  9998,2 46038  53.0546  50.2206 0001690  94.9228 265.1954 15.06459054299361
STARLINK-1569,46039,53.0548,0.0001551,15.0643547,546.02874492927,548.1769543306254,1 46039U 20055N   26005.38970393  .00006373  00000+0  44595-3 0  9997,2 46039  53.0548  50.7840 0001551  94.5979 265.5187 15.06435470299344
STARLINK-1582,46043,53.0554,0.0001245,15.06380353,546.4095604257154,548.1339872103963,1 46043U 20055S   26005.59613881  .00011471  00000+0  78811-3 0  9994,2 46043  53.0554  49.8542 0001245  79.0326 281.0803 15.06380353299378
STARLINK-1591,46045,53.0535,0.0001338,15.06399353,546.2869289984301,548.1401528031747,1 46045U 20055U   26005.48926236  .00008160  00000+0  56605-3 0  9993,2 46045  53.0535  50.3351 0001338  78.1440 281.9699 15.06399353299343
STARLINK-1524,46047,53.0554,0.0001509,15.06408424,546.1407085104502,548.2307709132938,1 46047U 20055W   26005.37591924  .00010346  00000+0  71227-3 0  9991,2 46047  53.0554  40.8464 0001509  92.6642 267.4520 15.06408424299487
STARLINK-1527,46048,53.0561,0.0001601,15.0640082,546.1002968557532,548.3177926592853,1 46048U 20055X   26005.37223100  .00009081  00000+0  62776-3 0  9993,2 46048  53.0561  40.8615 0001601  83.3072 276.8099 15.06400820299466
STARLINK-1540,46051,53.0557,0.0001598,15.06398377,546.1098607095419,548.3232036984346,1 46051U 20055AA  26005.47175330  .00003780  00000+0  27251-3 0  9998,2 46051  53.0557  40.4131 0001598  91.5799 268.5373 15.06398377299518
STARLINK-1541,46052,53.0558,0.0001336,15.06397241,546.2947861917592,548.1452415858703,1 46052U 20055AB  26005.45700690  .00003664  00000+0  26473-3 0  9996,2 46052  53.0558  40.4811 0001336  91.8270 268.2873 15.06397241299478
STARLINK-1543,46053,53.0548,0.0001299,15.06404691,546.2975798261377,548.0967816462926,1 46053U 20055AC  26005.39434048  .00002777  00000+0  20525-3 0  9997,2 46053  53.0548  40.7616 0001299  82.5116 277.6020 15.06404691299496
STARLINK-1548,46054,53.0542,0.000149,15.0639658,546.1901612686133,548.2539182624632,1 46054U 20055AD  26005.60075745  .00005530  00000+0  38991-3 0  9993,2 46054  53.0542  39.8346 0001490  94.1512 265.9648 15.06396580299529
STARLINK-1554,46055,53.0538,0.0001399,15.06407393,546.2200464573843,548.1577526440788,1 46055U 20055AE  26005.38697292  .00008376  00000+0  58042-3 0  9996,2 46055  53.0538  40.7947 0001399  90.4038 269.7112 15.06407393299492
STARLINK-1564,46058,53.0544,0.0001547,15.06407297,546.1178458123386,548.2605417366913,1 46058U 20055AH  26005.46443791  .00010847  00000+0  74583-3 0  9995,2 46058  53.0544  40.9099 0001547  81.8533 278.2631 15.06407297299495
STARLINK-1570,46059,53.0544,0.0001183,15.06394735,546.4084238086234,548.046965095331,1 46059U 20055AJ  26005.49385382  .00002637  00000+0  19588-3 0  9992,2 46059  53.0544  40.3176 0001183  87.9407 272.1718 15.06394735299467
STARLINK-1572,46060,53.0546,0.0001328,15.06394556,546.3085545601671,548.1479315687257,1 46060U 20055AK  26005.35747872  .00004752  00000+0  33775-3 0  9999,2 46060  53.0546  40.9273 0001328  97.2770 262.8370 15.06394556299453
STARLINK-1573,46061,53.055,0.0001356,15.06388787,546.3068424569374,548.1850063060292,1 46061U 20055AL  26005.48650555  .00004848  00000+0  34424-3 0  9993,2 46061  53.0550  40.3837 0001356  78.0366 282.0775 15.06388787299506
STARLINK-1577,46063,53.0537,0.0001557,15.06403955,546.1211615762659,548.2777113425791,1 46063U 20055AN  26005.37959947  .00004560  00000+0  32480-3 0  9991,2 46063  53.0537  40.8277 0001557  90.0558 270.0610 15.06403955299483
